STARLINK-37165          
1 68287U 26055AB  26086.50002315 -.01273898  52358-3 -22352-2 0  9999
2 68287  53.1587 248.3671 0000483  86.7734 282.2565 16.01441650  2496
STARLINK-37016          
1 68288U 26055AC  26086.50002315 -.01274225  52228-3 -22710-2 0  9999
2 68288  53.1585 248.3795 0000545  86.9186 276.3371 16.01173094  2497
STARLINK-37010          
1 68289U 26055AD  26086.50002315 -.01275437  52541-3 -22226-2 0  9996
2 68289  53.1588 248.3618 0000629  98.5440 272.8384 16.01558879  2493
STARLINK-37151          
1 68290U 26055AE  26086.50002315 -.01250624  50748-3 -21667-2 0  9994
2 68290  53.1584 248.3580 0000563  97.3348 276.0967 16.01654829  2495
STRIX-6                 
1 68291U 26056A   26086.51320001  .00004258  00000+0  36225-3 0  9998
2 68291  50.2841  15.7147 0016651 291.0989  68.8179 14.99587379  1013
ELECTRON R/B            
1 68292U 26056B   26086.18828858  .02373454  10794-4  10543-2 0  9994
2 68292  50.2623  13.4891 0208010 276.1043  81.6279 15.88166201  1010
ELECTRON KICK STAGE R/B 
1 68293U 26056C   26086.21314945  .00089813  00000+0  14425-2 0  9994
2 68293  50.2916  15.2553 0158470  36.7937 324.3782 15.39278420  1005
STARLINK-37107          
1 68294U 26057A   26086.50002315 -.01030716  36340-3 -16112-2 0  9999
2 68294  97.2821 209.4920 0001379  55.7441  33.1836 16.04073821  2022
STARLINK-37147          
1 68295U 26057B   26086.50002315 -.01030366  36359-3 -16014-2 0  9992
2 68295  97.2819 209.4926 0001253  56.3185  34.4294 16.04170806  2011
STARLINK-37142          
1 68296U 26057C   26086.50002315 -.01024339  36119-3 -15584-2 0  9991
2 68296  97.2818 209.4950 0001337  53.3938  43.1697 16.04525769  1907
STARLINK-37115          
1 68297U 26057D   26086.50002315 -.01028132  36320-3 -15744-2 0  9999
2 68297  97.2816 209.4935 0001220  63.5920  31.2109 16.04418263  1900
STARLINK-36355          
1 68298U 26057E   26086.50002315 -.01030877  36439-3 -15919-2 0  9994
2 68298  97.2819 209.4931 0001086  65.3218  27.2304 16.04278875  2175
