CCSDS_OMM_VERS = 2.0
CREATION_DATE  = 
ORIGINATOR     = 

OBJECT_NAME    = STARLINK-37165
OBJECT_ID      = 2026-055AB
CENTER_NAME    = EARTH
REF_FRAME      = TEME
TIME_SYSTEM    = UTC
MEAN_ELEMENT_THEORY = SGP/SGP4

EPOCH          = 2026-03-27T12:00:02.000160
MEAN_MOTION    = 16.01441650
ECCENTRICITY   = .0000483
INCLINATION    = 53.1587
RA_OF_ASC_NODE = 248.3671
ARG_OF_PERICENTER = 86.7734
MEAN_ANOMALY   = 282.2565

EPHEMERIS_TYPE = 0
CLASSIFICATION_TYPE = U
NORAD_CAT_ID   = 68287
ELEMENT_SET_NO = 999
REV_AT_EPOCH   = 249
BSTAR          = -.22351781E-2
MEAN_MOTION_DOT = -.1273898E-1
MEAN_MOTION_DDOT = .52357833E-3

CCSDS_OMM_VERS = 2.0
CREATION_DATE  = 
ORIGINATOR     = 

OBJECT_NAME    = STARLINK-37016
OBJECT_ID      = 2026-055AC
CENTER_NAME    = EARTH
REF_FRAME      = TEME
TIME_SYSTEM    = UTC
MEAN_ELEMENT_THEORY = SGP/SGP4

EPOCH          = 2026-03-27T12:00:02.000160
MEAN_MOTION    = 16.01173094
ECCENTRICITY   = .00005453
INCLINATION    = 53.1585
RA_OF_ASC_NODE = 248.3795
ARG_OF_PERICENTER = 86.9186
MEAN_ANOMALY   = 276.3371

EPHEMERIS_TYPE = 0
CLASSIFICATION_TYPE = U
NORAD_CAT_ID   = 68288
ELEMENT_SET_NO = 999
REV_AT_EPOCH   = 249
BSTAR          = -.22709556E-2
MEAN_MOTION_DOT = -.1274225E-1
MEAN_MOTION_DDOT = .52227841E-3

CCSDS_OMM_VERS = 2.0
CREATION_DATE  = 
ORIGINATOR     = 

OBJECT_NAME    = STARLINK-37010
OBJECT_ID      = 2026-055AD
CENTER_NAME    = EARTH
REF_FRAME      = TEME
TIME_SYSTEM    = UTC
MEAN_ELEMENT_THEORY = SGP/SGP4

EPOCH          = 2026-03-27T12:00:02.000160
MEAN_MOTION    = 16.01558879
ECCENTRICITY   = .00006299
INCLINATION    = 53.1588
RA_OF_ASC_NODE = 248.3618
ARG_OF_PERICENTER = 98.5440
MEAN_ANOMALY   = 272.8384

EPHEMERIS_TYPE = 0
CLASSIFICATION_TYPE = U
NORAD_CAT_ID   = 68289
ELEMENT_SET_NO = 999
REV_AT_EPOCH   = 249
BSTAR          = -.22226428E-2
MEAN_MOTION_DOT = -.1275437E-1
MEAN_MOTION_DDOT = .52541105E-3

CCSDS_OMM_VERS = 2.0
CREATION_DATE  = 
ORIGINATOR     = 

OBJECT_NAME    = STARLINK-37151
OBJECT_ID      = 2026-055AE
CENTER_NAME    = EARTH
REF_FRAME      = TEME
TIME_SYSTEM    = UTC
MEAN_ELEMENT_THEORY = SGP/SGP4

EPOCH          = 2026-03-27T12:00:02.000160
MEAN_MOTION    = 16.01654829
ECCENTRICITY   = .0000563
INCLINATION    = 53.1584
RA_OF_ASC_NODE = 248.3580
ARG_OF_PERICENTER = 97.3348
MEAN_ANOMALY   = 276.0967

EPHEMERIS_TYPE = 0
CLASSIFICATION_TYPE = U
NORAD_CAT_ID   = 68290
ELEMENT_SET_NO = 999
REV_AT_EPOCH   = 249
BSTAR          = -.21666894E-2
MEAN_MOTION_DOT = -.1250624E-1
MEAN_MOTION_DDOT = .50748001E-3

CCSDS_OMM_VERS = 2.0
CREATION_DATE  = 
ORIGINATOR     = 

OBJECT_NAME    = STRIX-6
OBJECT_ID      = 2026-056A
CENTER_NAME    = EARTH
REF_FRAME      = TEME
TIME_SYSTEM    = UTC
MEAN_ELEMENT_THEORY = SGP/SGP4

EPOCH          = 2026-03-27T12:19:00.480864
MEAN_MOTION    = 14.99587379
ECCENTRICITY   = .00166512
INCLINATION    = 50.2841
RA_OF_ASC_NODE = 15.7147
ARG_OF_PERICENTER = 291.0989
MEAN_ANOMALY   = 68.8179

EPHEMERIS_TYPE = 0
CLASSIFICATION_TYPE = U
NORAD_CAT_ID   = 68291
ELEMENT_SET_NO = 999
REV_AT_EPOCH   = 101
BSTAR          = .36224688E-3
MEAN_MOTION_DOT = .4258E-4
MEAN_MOTION_DDOT = 0

CCSDS_OMM_VERS = 2.0
CREATION_DATE  = 
ORIGINATOR     = 

OBJECT_NAME    = ELECTRON R/B
OBJECT_ID      = 2026-056B
CENTER_NAME    = EARTH
REF_FRAME      = TEME
TIME_SYSTEM    = UTC
MEAN_ELEMENT_THEORY = SGP/SGP4

EPOCH          = 2026-03-27T04:31:08.133312
MEAN_MOTION    = 15.88166201
ECCENTRICITY   = .02080105
INCLINATION    = 50.2623
RA_OF_ASC_NODE = 13.4891
ARG_OF_PERICENTER = 276.1043
MEAN_ANOMALY   = 81.6279

EPHEMERIS_TYPE = 0
CLASSIFICATION_TYPE = U
NORAD_CAT_ID   = 68292
ELEMENT_SET_NO = 999
REV_AT_EPOCH   = 101
BSTAR          = .10543304E-2
MEAN_MOTION_DOT = .2373454E-1
MEAN_MOTION_DDOT = .10794239E-4

CCSDS_OMM_VERS = 2.0
CREATION_DATE  = 
ORIGINATOR     = 

OBJECT_NAME    = ELECTRON KICK STAGE R/B
OBJECT_ID      = 2026-056C
CENTER_NAME    = EARTH
REF_FRAME      = TEME
TIME_SYSTEM    = UTC
MEAN_ELEMENT_THEORY = SGP/SGP4

EPOCH          = 2026-03-27T05:06:56.112480
MEAN_MOTION    = 15.39278420
ECCENTRICITY   = .015847
INCLINATION    = 50.2916
RA_OF_ASC_NODE = 15.2553
ARG_OF_PERICENTER = 36.7937
MEAN_ANOMALY   = 324.3782

EPHEMERIS_TYPE = 0
CLASSIFICATION_TYPE = U
NORAD_CAT_ID   = 68293
ELEMENT_SET_NO = 999
REV_AT_EPOCH   = 100
BSTAR          = .14424905E-2
MEAN_MOTION_DOT = .89813E-3
MEAN_MOTION_DDOT = 0

CCSDS_OMM_VERS = 2.0
CREATION_DATE  = 
ORIGINATOR     = 

OBJECT_NAME    = STARLINK-37107
OBJECT_ID      = 2026-057A
CENTER_NAME    = EARTH
REF_FRAME      = TEME
TIME_SYSTEM    = UTC
MEAN_ELEMENT_THEORY = SGP/SGP4

EPOCH          = 2026-03-27T12:00:02.000160
MEAN_MOTION    = 16.04073821
ECCENTRICITY   = .00013796
INCLINATION    = 97.2821
RA_OF_ASC_NODE = 209.4920
ARG_OF_PERICENTER = 55.7441
MEAN_ANOMALY   = 33.1836

EPHEMERIS_TYPE = 0
CLASSIFICATION_TYPE = U
NORAD_CAT_ID   = 68294
ELEMENT_SET_NO = 999
REV_AT_EPOCH   = 202
BSTAR          = -.16111616E-2
MEAN_MOTION_DOT = -.1030716E-1
MEAN_MOTION_DDOT = .36339645E-3

CCSDS_OMM_VERS = 2.0
CREATION_DATE  = 
ORIGINATOR     = 

OBJECT_NAME    = STARLINK-37147
OBJECT_ID      = 2026-057B
CENTER_NAME    = EARTH
REF_FRAME      = TEME
TIME_SYSTEM    = UTC
MEAN_ELEMENT_THEORY = SGP/SGP4

EPOCH          = 2026-03-27T12:00:02.000160
MEAN_MOTION    = 16.04170806
ECCENTRICITY   = .0001253
INCLINATION    = 97.2819
RA_OF_ASC_NODE = 209.4926
ARG_OF_PERICENTER = 56.3185
MEAN_ANOMALY   = 34.4294

EPHEMERIS_TYPE = 0
CLASSIFICATION_TYPE = U
NORAD_CAT_ID   = 68295
ELEMENT_SET_NO = 999
REV_AT_EPOCH   = 201
BSTAR          = -.16013553E-2
MEAN_MOTION_DOT = -.1030366E-1
MEAN_MOTION_DDOT = .36358791E-3

CCSDS_OMM_VERS = 2.0
CREATION_DATE  = 
ORIGINATOR     = 

OBJECT_NAME    = STARLINK-37142
OBJECT_ID      = 2026-057C
CENTER_NAME    = EARTH
REF_FRAME      = TEME
TIME_SYSTEM    = UTC
MEAN_ELEMENT_THEORY = SGP/SGP4

EPOCH          = 2026-03-27T12:00:02.000160
MEAN_MOTION    = 16.04525769
ECCENTRICITY   = .00013375
INCLINATION    = 97.2818
RA_OF_ASC_NODE = 209.4950
ARG_OF_PERICENTER = 53.3938
MEAN_ANOMALY   = 43.1697

EPHEMERIS_TYPE = 0
CLASSIFICATION_TYPE = U
NORAD_CAT_ID   = 68296
ELEMENT_SET_NO = 999
REV_AT_EPOCH   = 190
BSTAR          = -.15584342E-2
MEAN_MOTION_DOT = -.1024339E-1
MEAN_MOTION_DDOT = .36119287E-3

CCSDS_OMM_VERS = 2.0
CREATION_DATE  = 
ORIGINATOR     = 

OBJECT_NAME    = STARLINK-37115
OBJECT_ID      = 2026-057D
CENTER_NAME    = EARTH
REF_FRAME      = TEME
TIME_SYSTEM    = UTC
MEAN_ELEMENT_THEORY = SGP/SGP4

EPOCH          = 2026-03-27T12:00:02.000160
MEAN_MOTION    = 16.04418263
ECCENTRICITY   = .00012201
INCLINATION    = 97.2816
RA_OF_ASC_NODE = 209.4935
ARG_OF_PERICENTER = 63.5920
MEAN_ANOMALY   = 31.2109

EPHEMERIS_TYPE = 0
CLASSIFICATION_TYPE = U
NORAD_CAT_ID   = 68297
ELEMENT_SET_NO = 999
REV_AT_EPOCH   = 190
BSTAR          = -.15743992E-2
MEAN_MOTION_DOT = -.1028132E-1
MEAN_MOTION_DDOT = .3632012E-3

CCSDS_OMM_VERS = 2.0
CREATION_DATE  = 
ORIGINATOR     = 

OBJECT_NAME    = STARLINK-36355
OBJECT_ID      = 2026-057E
CENTER_NAME    = EARTH
REF_FRAME      = TEME
TIME_SYSTEM    = UTC
MEAN_ELEMENT_THEORY = SGP/SGP4

EPOCH          = 2026-03-27T12:00:02.000160
MEAN_MOTION    = 16.04278875
ECCENTRICITY   = .00010865
INCLINATION    = 97.2819
RA_OF_ASC_NODE = 209.4931
ARG_OF_PERICENTER = 65.3218
MEAN_ANOMALY   = 27.2304

EPHEMERIS_TYPE = 0
CLASSIFICATION_TYPE = U
NORAD_CAT_ID   = 68298
ELEMENT_SET_NO = 999
REV_AT_EPOCH   = 217
BSTAR          = -.15918895E-2
MEAN_MOTION_DOT = -.1030877E-1
MEAN_MOTION_DDOT = .36438857E-3

